OBJECT_NAME,OBJECT_ID,EPOCH,MEAN_MOTION,ECCENTRICITY,INCLINATION,RA_OF_ASC_NODE,ARG_OF_PERICENTER,MEAN_ANOMALY,EPHEMERIS_TYPE,CLASSIFICATION_TYPE,NORAD_CAT_ID,ELEMENT_SET_NO,REV_AT_EPOCH,BSTAR,MEAN_MOTION_DOT,MEAN_MOTION_DDOT
STARLINK-30716,2023-148B,2026-07-19T04:44:40.480800,15.30191644,.00011265,53.1603,133.5868,78.6090,281.5037,0,U,57936,999,15855,-.36036576E-4,-.1426E-4,0
STARLINK-30400,2023-148C,2026-07-19T19:19:33.453120,15.34390876,.0001445,53.1600,128.9004,89.9499,270.1669,0,U,57937,999,15867,.43899E-5,-.228E-5,0
STARLINK-30710,2023-148D,2026-07-19T02:25:45.106464,15.34384526,.00014076,53.1594,121.7834,91.9769,268.1394,0,U,57938,999,15870,-.1167832E-5,-.416E-5,0
STARLINK-30714,2023-148E,2026-07-19T20:05:37.828032,15.32277176,.0001995,53.1571,130.4545,110.9923,249.1292,0,U,57939,999,15865,.91748E-3,.28734E-3,0
STARLINK-30711,2023-148F,2026-07-19T20:00:01.999008,15.34400597,.0001489,53.1591,130.5161,99.0960,227.7325,0,U,57940,999,585,.54312E-3,.18018E-3,0
STARLINK-30715,2023-148G,2026-07-19T19:16:57.457920,15.30177637,.0002065,53.1602,120.3309,105.0854,255.0376,0,U,57941,999,15879,.19188E-3,.5324E-4,0
STARLINK-30455,2023-148H,2026-07-19T19:57:47.131200,15.33563303,.0001162,53.1608,130.3878,88.8971,271.2165,0,U,57942,999,15865,-.62611E-4,-.2432E-4,0
STARLINK-30456,2023-148J,2026-07-19T04:40:08.234400,15.30191146,.00014241,53.1610,133.6446,90.9438,269.1726,0,U,57943,999,15855,-.1140693E-4,-.697E-5,0
STARLINK-30708,2023-148K,2026-07-19T19:01:23.166336,15.34383871,.0001417,53.1591,128.8534,91.9071,268.2094,0,U,57944,999,15867,-.88825E-5,-.676E-5,0
STARLINK-30705,2023-148L,2026-07-19T12:49:14.985408,15.34381988,.0001248,53.1593,130.0902,102.2712,257.8430,0,U,57945,999,15863,.67801E-5,-.147E-5,0
STARLINK-30704,2023-148M,2026-07-19T08:18:23.997312,15.34384984,.00011615,53.1583,208.5958,79.8258,280.2875,0,U,57946,999,15749,.15597133E-4,.151E-5,0
STARLINK-30706,2023-148N,2026-07-19T19:58:49.835136,15.34374037,.0001491,53.1604,128.3880,72.0067,288.1098,0,U,57947,999,15868,-.26436E-4,-.1269E-4,0
STARLINK-30707,2023-148Q,2026-07-19T12:31:03.158976,15.34386564,.00013776,53.1601,130.0057,97.6928,262.4232,0,U,57949,999,15863,.37506091E-4,.891E-5,0
STARLINK-30701,2023-148R,2026-07-19T05:36:36.190944,15.34392935,.00018421,53.1603,131.7483,95.1259,264.9954,0,U,57950,999,15858,.21973633E-4,.366E-5,0
STARLINK-30399,2023-148S,2026-07-19T04:29:56.485248,15.34394478,.00013024,53.1598,131.4586,92.1908,267.9244,0,U,57951,999,15858,.40487568E-4,.992E-5,0
STARLINK-30713,2023-148T,2026-07-19T19:16:31.695168,15.34389166,.0001632,53.1604,128.9234,100.8791,259.2396,0,U,57952,999,15867,.16447E-4,.179E-5,0
STARLINK-30700,2023-148U,2026-07-19T20:00:01.999008,15.33565518,.0001205,53.1602,120.3438,86.6947,201.4603,0,U,57953,999,585,.2399E-5,-.294E-5,0
STARLINK-30703,2023-148V,2026-07-19T18:33:57.997152,15.34389243,.0001341,53.1590,118.6590,82.1985,277.9170,0,U,57954,999,15881,-.3854E-5,-.506E-5,0
STARLINK-30702,2023-148W,2026-07-19T02:28:52.591008,15.34368699,.00015458,53.1596,122.2921,66.1170,293.9994,0,U,57955,999,15870,.1273194E-3,.3923E-4,0
SKYKRAFT-3D,2023-084BZ,2026-07-19T09:32:02.082048,15.93065746,.00042516,97.6063,3.4845,204.3208,155.7866,0,U,57956,999,16028,.50003291E-3,.173383E-2,.13537119E-4
YAOGAN-33 04,2023-149A,2026-07-19T20:16:46.093152,14.58758076,.0000702,98.1974,149.8091,86.4877,273.6403,0,U,57958,999,14976,.48735E-4,.182E-5,0
STARLINK-30396,2023-151A,2026-07-19T15:28:02.800704,15.27578533,.0001428,43.0033,311.1055,280.6587,79.4104,0,U,57964,999,15594,-.16064E-4,-.704E-5,0
STARLINK-30524,2023-151B,2026-07-19T01:11:20.985216,15.27599925,.00015936,43.0059,314.3827,252.6923,107.3754,0,U,57965,999,15585,.15399948E-3,.398E-4,0
STARLINK-30521,2023-151C,2026-07-19T16:04:50.920320,15.27572925,.0002274,43.0049,310.4339,285.8485,74.2116,0,U,57966,999,15595,.23578E-5,-.198E-5,0
STARLINK-30528,2023-151D,2026-07-19T14:36:14.242752,15.27564400,.0001652,43.0026,310.8318,287.0554,73.0117,0,U,57967,999,15594,.29214E-3,.7782E-4,0
STARLINK-30495,2023-151E,2026-07-19T16:30:44.731008,15.27576230,.0000969,43.0030,310.5660,265.6820,94.3921,0,U,57968,999,15595,.76964E-6,-.241E-5,0
STARLINK-30494,2023-151G,2026-07-19T07:20:50.121888,15.27575546,.00016039,43.0026,167.2525,271.8140,88.2528,0,U,57970,999,15758,.16515823E-4,.192E-5,0
STARLINK-30498,2023-151H,2026-07-19T16:25:11.781696,15.27573689,.0001521,43.0038,310.5242,266.6681,93.3997,0,U,57971,999,15595,-.83212E-5,-.491E-5,0
STARLINK-30505,2023-151J,2026-07-19T15:24:20.685312,15.27576407,.0001486,43.0021,311.0636,267.4365,92.6316,0,U,57972,999,15594,.24031E-3,.6356E-4,0
STARLINK-30502,2023-151K,2026-07-19T16:19:38.509248,15.27573127,.0001348,43.0044,310.4994,277.3688,82.7011,0,U,57973,999,15595,-.33811E-4,-.1192E-4,0
STARLINK-30489,2023-151L,2026-07-19T16:27:02.746080,15.27573590,.0001551,43.0052,310.5399,264.6515,95.4159,0,U,57974,999,15595,.77808E-5,-.48E-6,0
STARLINK-30503,2023-151M,2026-07-19T17:07:44.976000,15.27578296,.0001743,43.0048,310.7268,266.7845,93.2807,0,U,57975,999,15595,.10056E-3,.2506E-4,0
STARLINK-30512,2023-151N,2026-07-19T14:41:46.704768,15.27569978,.0001182,43.0024,310.7961,276.2087,83.8630,0,U,57976,999,15594,-.42208E-5,-.378E-5,0
STARLINK-30509,2023-151P,2026-07-19T18:30:01.249056,15.27571345,.0001513,43.0035,324.7499,271.2576,88.8102,0,U,57977,999,15579,-.10179E-4,-.542E-5,0
STARLINK-30511,2023-151Q,2026-07-19T18:39:16.381152,15.27576171,.00014,43.0031,324.7980,264.2707,95.7985,0,U,57978,999,15579,.53286E-4,.1204E-4,0
STARLINK-30508,2023-151R,2026-07-19T17:10:39.535104,15.27574417,.0001223,43.0009,325.1894,271.7224,88.3488,0,U,57979,999,15578,-.86718E-6,-.286E-5,0
STARLINK-30510,2023-151T,2026-07-19T18:12:39.143232,15.27572770,.0001517,43.0038,328.0590,270.1531,89.9147,0,U,57981,999,15575,-.23947E-4,-.921E-5,0
STARLINK-30507,2023-151U,2026-07-19T08:53:15.269568,15.27578109,.00021051,43.0014,330.3063,275.2385,84.8226,0,U,57982,999,15568,-.33406686E-4,-.1182E-4,0
STARLINK-30515,2023-151V,2026-07-19T16:49:35.723424,15.27575840,.0001934,43.0042,328.4859,275.7154,84.3477,0,U,57983,999,15573,.48333E-4,.1068E-4,0
STARLINK-30516,2023-151W,2026-07-19T09:04:21.790272,15.27579037,.00016029,43.0031,330.3669,270.3468,89.7200,0,U,57984,999,15569,.436595E-5,-.142E-5,0
STARLINK-30519,2023-151X,2026-07-19T17:18:03.562848,15.27576758,.0001546,43.0056,325.2288,269.9082,90.1593,0,U,57985,999,15572,.30396E-4,.574E-5,0
YAOGAN-39 03A,2023-152A,2026-07-19T20:09:46.353312,15.23000048,.0002704,35.0014,67.1720,98.0897,262.0124,0,U,57986,999,15542,.19515E-3,.4667E-4,0
YAOGAN-39 03B,2023-152C,2026-07-19T20:29:41.653248,15.16507773,.0026132,34.9897,92.7310,159.6832,200.4925,0,U,57988,999,15515,.13336E-3,.2647E-4,0
YAOGAN-39 03C,2023-152E,2026-07-19T20:24:32.489856,15.16479149,.0016479,34.9899,92.6775,68.6023,291.6446,0,U,57990,999,15512,.13685E-3,.2701E-4,0
STARLINK-30537,2023-153A,2026-07-19T13:11:40.055424,15.27578006,.00015292,43.0060,42.3009,256.8181,103.2501,0,U,57991,999,15496,.8997241E-5,-.15E-6,0
STARLINK-30534,2023-153B,2026-07-19T20:42:04.777056,15.27587790,.0000873,43.0047,40.3483,266.9645,93.1107,0,U,57992,999,15501,.57067E-4,.1309E-4,0
STARLINK-30536,2023-153C,2026-07-19T13:17:13.028928,15.27576001,.0001635,43.0052,42.3285,251.1988,108.8686,0,U,57993,999,15506,.30855E-4,.587E-5,0
STARLINK-30538,2023-153D,2026-07-18T23:20:54.264192,15.27583878,.00013746,43.0043,45.7023,271.3910,88.6784,0,U,57994,999,15487,.20824855E-4,.311E-5,0
STARLINK-30517,2023-153E,2026-07-19T20:05:18.361248,15.27571228,.0001476,43.0018,41.0060,262.7445,97.3238,0,U,57995,999,15510,.23263E-5,-.198E-5,0
STARLINK-30523,2023-153G,2026-07-19T13:22:46.049088,15.27575831,.0001669,43.0062,42.3562,268.0566,92.0094,0,U,57997,999,15506,.27658E-4,.499E-5,0
STARLINK-30531,2023-153H,2026-07-19T13:07:57.908928,15.27576743,.00014153,43.0056,42.2794,271.0829,88.9861,0,U,57998,999,15506,.13160127E-4,.1E-5,0
STARLINK-30552,2023-153J,2026-07-19T20:21:56.875680,15.27572508,.0001623,43.0019,41.0984,273.4715,86.5951,0,U,57999,999,15510,.86799E-4,.2126E-4,0
STARLINK-30545,2023-153K,2026-07-19T20:27:17.652096,15.27576724,.0001068,43.0020,40.2684,275.4278,84.6452,0,U,58000,999,15511,.15078E-4,.153E-5,0
STARLINK-30535,2023-153L,2026-07-19T14:16:12.893088,15.27581391,.0001413,43.0039,41.7726,274.6559,85.4131,0,U,58001,999,15507,.49218E-4,.1092E-4,0
STARLINK-30540,2023-153M,2026-07-19T20:47:38.569632,15.27574695,.0001485,43.0046,40.3580,265.5232,94.5450,0,U,58002,999,15501,.11597E-4,.57E-6,0
STARLINK-30539,2023-153P,2026-07-19T20:43:57.095328,15.27570641,.000188,43.0058,40.3562,273.9246,86.1390,0,U,58004,999,15510,-.24655E-4,-.941E-5,0
STARLINK-30530,2023-153Q,2026-07-18T15:06:04.173408,15.27579529,.000152,43.0062,47.4203,259.1150,100.9531,0,U,58005,999,15492,-.12412E-4,-.604E-5,0
STARLINK-30526,2023-153R,2026-07-19T19:04:50.221344,15.31842657,.0007289,43.0048,13.8082,280.8845,79.1187,0,U,58006,999,15541,.49738E-3,.15382E-3,0
STARLINK-30527,2023-153S,2026-07-19T06:33:30.952224,15.27573681,.00014163,43.0023,175.2662,269.0743,90.9946,0,U,58007,999,15758,.12982787E-4,.95E-6,0
STARLINK-30522,2023-153T,2026-07-19T06:03:26.324064,15.27574455,.00013283,43.0032,44.3481,271.6565,88.4135,0,U,58008,999,15501,-.13227962E-4,-.626E-5,0
STARLINK-30486,2023-153U,2026-07-19T14:32:52.007136,15.27575350,.0001573,43.0041,41.8494,258.4398,101.6277,0,U,58009,999,15497,.431E-5,-.144E-5,0
STARLINK-30520,2023-153V,2026-07-19T13:13:30.657792,15.27579438,.00014367,43.0061,42.2864,262.1606,97.9083,0,U,58010,999,15496,.3415819E-4,.678E-5,0
STARLINK-30497,2023-153W,2026-07-19T20:36:32.507712,15.27574522,.0001486,43.0042,40.3031,267.5268,92.5414,0,U,58011,999,15511,.12279E-4,.76E-6,0
STARLINK-30525,2023-153X,2026-07-19T13:02:25.040832,15.27575714,.00012427,43.0054,42.2305,268.0964,91.9745,0,U,58012,999,15506,.95991654E-4,.238E-4,0
THEOS-2 (T2V),2023-155A,2026-07-19T20:46:47.538336,14.81643772,.0001437,97.8863,271.3537,98.6244,261.5132,0,U,58016,999,15026,.50615E-4,.346E-5,0
